CCSDS_OMM_VERS = 2.0
CREATION_DATE  = 
ORIGINATOR     = 

OBJECT_NAME    = SL-14 R/B
OBJECT_ID      = 1986-046B
CENTER_NAME    = EARTH
REF_FRAME      = TEME
TIME_SYSTEM    = UTC
MEAN_ELEMENT_THEORY = SGP/SGP4

EPOCH          = 2026-03-30T10:01:42.327264
MEAN_MOTION    = 14.85611015
ECCENTRICITY   = .0023678
INCLINATION    = 82.4806
RA_OF_ASC_NODE = 60.5914
ARG_OF_PERICENTER = 155.9679
MEAN_ANOMALY   = 204.2648

EPHEMERIS_TYPE = 0
CLASSIFICATION_TYPE = U
NORAD_CAT_ID   = 16792
ELEMENT_SET_NO = 999
REV_AT_EPOCH   = 12948
BSTAR          = .71328E-4
MEAN_MOTION_DOT = .645E-5
MEAN_MOTION_DDOT = 0

CCSDS_OMM_VERS = 2.0
CREATION_DATE  = 
ORIGINATOR     = 

OBJECT_NAME    = SL-14 R/B
OBJECT_ID      = 1986-055B
CENTER_NAME    = EARTH
REF_FRAME      = TEME
TIME_SYSTEM    = UTC
MEAN_ELEMENT_THEORY = SGP/SGP4

EPOCH          = 2026-03-30T11:45:19.327392
MEAN_MOTION    = 14.85661385
ECCENTRICITY   = .0017319
INCLINATION    = 82.5169
RA_OF_ASC_NODE = 107.1182
ARG_OF_PERICENTER = 262.7986
MEAN_ANOMALY   = 210.8368

EPHEMERIS_TYPE = 0
CLASSIFICATION_TYPE = U
NORAD_CAT_ID   = 16882
ELEMENT_SET_NO = 999
REV_AT_EPOCH   = 12245
BSTAR          = .63925E-4
MEAN_MOTION_DOT = .579E-5
MEAN_MOTION_DDOT = 0

CCSDS_OMM_VERS = 2.0
CREATION_DATE  = 
ORIGINATOR     = 

OBJECT_NAME    = AJISAI (EGS)
OBJECT_ID      = 1986-061A
CENTER_NAME    = EARTH
REF_FRAME      = TEME
TIME_SYSTEM    = UTC
MEAN_ELEMENT_THEORY = SGP/SGP4

EPOCH          = 2026-03-30T12:54:42.857856
MEAN_MOTION    = 12.44515627
ECCENTRICITY   = .0011342
INCLINATION    = 50.0115
RA_OF_ASC_NODE = 29.2382
ARG_OF_PERICENTER = 340.6825
MEAN_ANOMALY   = 191.7861

EPHEMERIS_TYPE = 0
CLASSIFICATION_TYPE = U
NORAD_CAT_ID   = 16908
ELEMENT_SET_NO = 999
REV_AT_EPOCH   = 47059
BSTAR          = -.65887E-4
MEAN_MOTION_DOT = -.107E-5
MEAN_MOTION_DDOT = 0

CCSDS_OMM_VERS = 2.0
CREATION_DATE  = 
ORIGINATOR     = 

OBJECT_NAME    = SL-14 R/B
OBJECT_ID      = 1987-024B
CENTER_NAME    = EARTH
REF_FRAME      = TEME
TIME_SYSTEM    = UTC
MEAN_ELEMENT_THEORY = SGP/SGP4

EPOCH          = 2026-03-30T10:38:55.262688
MEAN_MOTION    = 14.86152445
ECCENTRICITY   = .0017959
INCLINATION    = 82.5255
RA_OF_ASC_NODE = 73.2513
ARG_OF_PERICENTER = 187.1067
MEAN_ANOMALY   = 172.9898

EPHEMERIS_TYPE = 0
CLASSIFICATION_TYPE = U
NORAD_CAT_ID   = 17567
ELEMENT_SET_NO = 999
REV_AT_EPOCH   = 9121
BSTAR          = .69805E-4
MEAN_MOTION_DOT = .638E-5
MEAN_MOTION_DDOT = 0

CCSDS_OMM_VERS = 2.0
CREATION_DATE  = 
ORIGINATOR     = 

OBJECT_NAME    = COSMOS 1833
OBJECT_ID      = 1987-027A
CENTER_NAME    = EARTH
REF_FRAME      = TEME
TIME_SYSTEM    = UTC
MEAN_ELEMENT_THEORY = SGP/SGP4

EPOCH          = 2026-03-30T12:44:30.249888
MEAN_MOTION    = 14.13046685
ECCENTRICITY   = .0023191
INCLINATION    = 70.9170
RA_OF_ASC_NODE = 282.2128
ARG_OF_PERICENTER = 183.7360
MEAN_ANOMALY   = 176.3592

EPHEMERIS_TYPE = 0
CLASSIFICATION_TYPE = U
NORAD_CAT_ID   = 17589
ELEMENT_SET_NO = 999
REV_AT_EPOCH   = 1326
BSTAR          = -.12596E-3
MEAN_MOTION_DOT = -.284E-5
MEAN_MOTION_DDOT = 0

CCSDS_OMM_VERS = 2.0
CREATION_DATE  = 
ORIGINATOR     = 

OBJECT_NAME    = SL-16 R/B
OBJECT_ID      = 1987-027B
CENTER_NAME    = EARTH
REF_FRAME      = TEME
TIME_SYSTEM    = UTC
MEAN_ELEMENT_THEORY = SGP/SGP4

EPOCH          = 2026-03-30T12:21:09.891648
MEAN_MOTION    = 14.17166019
ECCENTRICITY   = .0002864
INCLINATION    = 71.0017
RA_OF_ASC_NODE = 232.6075
ARG_OF_PERICENTER = 91.3204
MEAN_ANOMALY   = 268.8248

EPHEMERIS_TYPE = 0
CLASSIFICATION_TYPE = U
NORAD_CAT_ID   = 17590
ELEMENT_SET_NO = 999
REV_AT_EPOCH   = 1829
BSTAR          = .68451E-4
MEAN_MOTION_DOT = .9E-6
MEAN_MOTION_DDOT = 0

CCSDS_OMM_VERS = 2.0
CREATION_DATE  = 
ORIGINATOR     = 

OBJECT_NAME    = SL-14 R/B
OBJECT_ID      = 1987-038B
CENTER_NAME    = EARTH
REF_FRAME      = TEME
TIME_SYSTEM    = UTC
MEAN_ELEMENT_THEORY = SGP/SGP4

EPOCH          = 2026-03-30T12:24:01.448352
MEAN_MOTION    = 14.85388645
ECCENTRICITY   = .0020764
INCLINATION    = 82.4977
RA_OF_ASC_NODE = 277.1819
ARG_OF_PERICENTER = 95.4817
MEAN_ANOMALY   = 264.8769

EPHEMERIS_TYPE = 0
CLASSIFICATION_TYPE = U
NORAD_CAT_ID   = 17912
ELEMENT_SET_NO = 999
REV_AT_EPOCH   = 8232
BSTAR          = .70202E-4
MEAN_MOTION_DOT = .631E-5
MEAN_MOTION_DDOT = 0

CCSDS_OMM_VERS = 2.0
CREATION_DATE  = 
ORIGINATOR     = 

OBJECT_NAME    = COSMOS 1844
OBJECT_ID      = 1987-041A
CENTER_NAME    = EARTH
REF_FRAME      = TEME
TIME_SYSTEM    = UTC
MEAN_ELEMENT_THEORY = SGP/SGP4

EPOCH          = 2026-03-30T11:21:22.455648
MEAN_MOTION    = 14.14558043
ECCENTRICITY   = .003116
INCLINATION    = 70.9016
RA_OF_ASC_NODE = 350.3397
ARG_OF_PERICENTER = 347.4717
MEAN_ANOMALY   = 12.5626

EPHEMERIS_TYPE = 0
CLASSIFICATION_TYPE = U
NORAD_CAT_ID   = 17973
ELEMENT_SET_NO = 999
REV_AT_EPOCH   = 652
BSTAR          = .23829E-3
MEAN_MOTION_DOT = .411E-5
MEAN_MOTION_DDOT = 0

CCSDS_OMM_VERS = 2.0
CREATION_DATE  = 
ORIGINATOR     = 

OBJECT_NAME    = SL-14 R/B
OBJECT_ID      = 1987-055B
CENTER_NAME    = EARTH
REF_FRAME      = TEME
TIME_SYSTEM    = UTC
MEAN_ELEMENT_THEORY = SGP/SGP4

EPOCH          = 2026-03-30T02:03:29.033280
MEAN_MOTION    = 14.85649806
ECCENTRICITY   = .00194441
INCLINATION    = 82.5005
RA_OF_ASC_NODE = 329.8113
ARG_OF_PERICENTER = 309.0662
MEAN_ANOMALY   = 50.8824

EPHEMERIS_TYPE = 0
CLASSIFICATION_TYPE = U
NORAD_CAT_ID   = 18153
ELEMENT_SET_NO = 999
REV_AT_EPOCH   = 7296
BSTAR          = .59422482E-4
MEAN_MOTION_DOT = .54E-5
MEAN_MOTION_DDOT = 0

CCSDS_OMM_VERS = 2.0
CREATION_DATE  = 
ORIGINATOR     = 

OBJECT_NAME    = COSMOS 1867
OBJECT_ID      = 1987-060A
CENTER_NAME    = EARTH
REF_FRAME      = TEME
TIME_SYSTEM    = UTC
MEAN_ELEMENT_THEORY = SGP/SGP4

EPOCH          = 2026-03-30T11:16:11.197920
MEAN_MOTION    = 14.31506308
ECCENTRICITY   = .0014849
INCLINATION    = 65.0096
RA_OF_ASC_NODE = 248.5081
ARG_OF_PERICENTER = 279.8739
MEAN_ANOMALY   = 80.0669

EPHEMERIS_TYPE = 0
CLASSIFICATION_TYPE = U
NORAD_CAT_ID   = 18187
ELEMENT_SET_NO = 999
REV_AT_EPOCH   = 2291
BSTAR          = .27141E-4
MEAN_MOTION_DOT = -.28E-6
MEAN_MOTION_DDOT = 0

CCSDS_OMM_VERS = 2.0
CREATION_DATE  = 
ORIGINATOR     = 

OBJECT_NAME    = SL-14 R/B
OBJECT_ID      = 1988-001B
CENTER_NAME    = EARTH
REF_FRAME      = TEME
TIME_SYSTEM    = UTC
MEAN_ELEMENT_THEORY = SGP/SGP4

EPOCH          = 2026-03-30T11:40:48.412416
MEAN_MOTION    = 14.85550813
ECCENTRICITY   = .001848
INCLINATION    = 82.5159
RA_OF_ASC_NODE = 175.8063
ARG_OF_PERICENTER = 165.0962
MEAN_ANOMALY   = 195.0803

EPHEMERIS_TYPE = 0
CLASSIFICATION_TYPE = U
NORAD_CAT_ID   = 18749
ELEMENT_SET_NO = 999
REV_AT_EPOCH   = 4511
BSTAR          = .66288E-4
MEAN_MOTION_DOT = .599E-5
MEAN_MOTION_DDOT = 0

CCSDS_OMM_VERS = 2.0
CREATION_DATE  = 
ORIGINATOR     = 

OBJECT_NAME    = COSMOS 1933
OBJECT_ID      = 1988-020A
CENTER_NAME    = EARTH
REF_FRAME      = TEME
TIME_SYSTEM    = UTC
MEAN_ELEMENT_THEORY = SGP/SGP4

EPOCH          = 2026-03-30T11:41:43.450080
MEAN_MOTION    = 15.18181753
ECCENTRICITY   = .00053
INCLINATION    = 82.5122
RA_OF_ASC_NODE = 230.3298
ARG_OF_PERICENTER = 119.4704
MEAN_ANOMALY   = 240.7059

EPHEMERIS_TYPE = 0
CLASSIFICATION_TYPE = U
NORAD_CAT_ID   = 18958
ELEMENT_SET_NO = 999
REV_AT_EPOCH   = 5338
BSTAR          = .30228E-3
MEAN_MOTION_DOT = .6208E-4
MEAN_MOTION_DDOT = 0

